#dP2024  2 13  6  0  0.00000000      96 __u+U IGS20 EXT  IAC
## 2301 194400.00000000   900.00000000 60353 0.2500000000000
+  119   C06C07C08C09C10C11C12C13C14C16C19C20C21C22C23C24C25
+        C26C27C28C29C30C32C33C34C35C36C37C38C39C40C41C42C43
+        C44C45C46E02E03E04E05E07E08E09E10E11E12E13E14E15E18
+        E19E21E24E25E26E27E30E31E33E34E36G01G02G03G04G05G06
+        G07G08G09G10G11G12G13G14G15G16G17G18G19G20G21G22G23
+        G24G25G26G27G28G29G30G31G32J02J03J04R01R02R03R04R05
+        R07R08R09R11R12R13R14R15R16R17R18R19R20R21R22R24R26
++         8  7  8  9 11  9  9 10 10  9  7  8  7  8  7  9  8
++         9  8 10  8  9  8 10  8  7  9  8 11 10  9  7  8  8
++         8  8  9  7  8  7  8  7  8  8  8  7  8  9  8  8  7
++         8  8  7  7  7  8 11  8  8  7  7  8  8  7  8  8  8
++         7  7  7  7  7  8  8  8  8  7  8  6  8  8  8  7  7
++         7  7  8  7  7  7  7  7  7  8 10  0  8  7  8  9  7
++         7  8  9  7  8  7  7  7  7  7  7  9  8  9  7  9  8
%c M  cc GPS ccc cccc cccc cccc cccc ccccc ccccc ccccc ccccc
%c cc cc ccc ccc cccc cccc cccc cccc ccccc ccccc ccccc ccccc
%f  0.0000000  0.000000000  0.00000000000  0.000000000000000
%f  0.0000000  0.000000000  0.00000000000  0.000000000000000
%i    0    0    0    0      0      0      0      0         0
%i    0    0    0    0      0      0      0      0         0
/* IAC                                ULTRA-RAPID PREDICTION
/* S/V CLOCKS ARE ALIGNED TO GNSS TIME                      
/* G:C1WC2W R:C1PC2P E:C1XC5X C:C2IC6I J:C1CC2S             
/* PCV:IGS20_2290 OL/AL:FES2004  NONE     YN ORB:CoN CLK:CoN
*  2024 02 14  2  0  0.00000000
PC06 -13561.731148  23753.892437  32059.572491    108.687084
PC07 -12855.486151  40256.932508   -962.343729   -797.753641
PC08   1330.737752  30029.491542 -29462.133153     39.951926
PC09  -3208.966734  24560.612275  34522.926718   -486.993203
PC10  -7473.524074  41157.538117  -6940.981175     85.996745
PC11  10736.735131 -17391.721799  19069.137629    409.435370
PC12  25015.600637 -11911.596306   3396.906489    770.489957
PC13   8273.410018  34068.335572 -23036.021279    417.127111
PC14   5532.269236 -27194.822573   2636.076549    185.413133
PC16 -15906.768712  22970.562736  31740.070680   -338.426790
PC19    825.553856  27095.042025   6709.242476   -927.069647
PC20 -10120.251004  24044.653504  -9937.058370   -160.604282
PC21  15948.774669  -5976.512465  22119.197993   -962.199187
PC22  11907.917405  14787.317356  20462.393975   -110.631268
PC23 -21491.581795 -17767.747234  -1180.619837   -781.339283
PC24  10998.931987 -12151.810896 -22607.436003    882.379462
PC25  -8392.098258 -20940.505233 -16454.696519    325.611748
PC26  22913.469612   2915.092658 -15657.217398   -248.874896
PC27 -26590.854716   6612.459848   5229.792298    270.852741
PC28 -20074.411294  -5925.822754  18461.283083    206.026413
PC29     49.528807  16987.494523 -22142.485173    241.477706
PC30 -19229.578262  16959.056184 -10992.540577    -24.962288
PC32 -15898.942775   6048.175086 -22105.682202   -567.294366
PC33   -918.336060 -27095.905738  -6566.750110   -948.620234
PC34  18066.479126 -17403.153244  12242.538341    368.826058
PC35  20270.067800   5287.278014 -18468.247020    434.170804
PC36   7395.896666  21032.938528  16789.337680    -15.831591
PC37 -23028.080811  -3886.702644  15297.013686   -936.165974
PC38  -6307.633992  26062.580024 -32443.569315    136.665961
PC39 -22443.310177  22300.084368  27811.326501     -7.128697
PC40 -19739.519159  37394.713093   1419.824427    -56.404746
PC41 -11610.285344 -15531.737762 -20005.162951   -890.597098
PC42  10942.817948 -22996.903946  11422.202475   -454.671875
PC43    988.833711 -17368.062320  21816.198760     60.337893
PC44  26361.822793  -7464.161038  -5411.411350    383.811748
PC45  21551.720012  17681.282985    937.786906    -69.965854
PC46 -10145.049745  12656.902787  22694.185926   -123.663620
PE02   2326.914581 -25526.497733 -14833.925766    103.214845
PE03  12778.742060 -24867.587159  -9708.746815    -93.676301
PE04   4949.285471  18385.384428  22672.379021   -326.759130
PE05  22795.085636 -16748.745340   8727.541528   4719.825360
PE07 -19347.912131  -1610.394061 -22338.128996   -103.654466
PE08  -4220.848956 -18753.787067 -22504.594059   -223.528359
PE09  19178.301235   1655.015415  22486.562508   -335.259157
PE10  23568.562904  12828.618721 -12497.782577   -601.772363
PE11  28578.061277   7354.146781  -2459.018892   3247.922812
PE12  15574.707753  15959.895665 -19474.817499   -905.402555
PE13 -28393.850865  -7722.360109   3155.676631    -20.178793
PE14  17444.191795 -16652.767301  -1355.488477     38.759917
PE15 -15014.477390 -15997.744504  19874.225261    -85.682384
PE18 -16842.553003  26408.794364  -7706.628174    324.137664
PE19 -14596.168624  24560.811110   7740.205775   -619.419346
PE21 -14242.563812   9747.810612  24038.200499   -578.905455
PE24  18385.091133  12789.882404 -19363.794978   -596.990801
PE25  14427.191101  -9339.157020 -24104.309866      0.856928
PE26 -24582.501250   5422.401716 -15557.247118    368.120241
PE27 -18410.786750 -12394.057534  19585.592369   -274.153190
PE30 -11454.018953 -27090.111666   3397.118233    507.892447
PE31  11677.865267  26949.119785  -3649.766345    -15.952883
PE33  -7572.073259  14593.869154 -24606.281438      7.555037
PE34   6918.131454 -14791.868288  24689.458479    -94.510364
PE36  24966.178760  -4932.407371  15137.903367   -185.624458
PG01  20300.436526  12481.076309 -12419.760456    169.455703
PG02  14166.008693  13542.589140 -17550.414326   -485.806718
PG03  12004.674079  23098.255898   5445.447161    191.677569
PG04   7159.538455  14094.171350  21337.475760    291.112652
PG05  -5478.244453 -25070.762097   6484.110249   -161.731512
PG06  19731.512191  -7110.476900  16430.023950    407.990319
PG07  26128.268858   5957.848113   1560.438234    -61.399793
PG08    227.948118  19742.336795 -17653.434570   -166.910156
PG09  17035.125737   1596.442656  20248.955151     91.388884
PG10 -13400.742576   5982.879534 -21921.652723      0.339845
PG11   8418.444635 -13246.390193  21445.580360   -575.010016
PG12 -10196.485741 -24027.779996   4817.783077   -477.756314
PG13  10286.360658 -20841.668261 -12850.164192    625.318177
PG14  15613.021610  -1879.264594 -21395.931164    325.127054
PG15  -2822.010375 -20044.895018 -17580.726688    127.461604
PG16  -1946.482456  23593.565541  11232.020596   -363.163833
PG17  21241.966553 -10393.694490 -11816.639885    717.072283
PG18 -26179.880744  -5027.763971   -398.161192   -555.057741
PG19  20692.911261 -15889.956741  -3982.280558    440.344571
PG20   3154.219668 -19788.187827  17575.697148    387.588858
PG21   9272.428069  14742.946905 -19840.250887    135.014876
PG22  12154.868566 -10690.742433 -20684.771020     31.606923
PG23 -16805.976377  -7519.910572 -19191.519946    155.696768
PG24 -11841.976409 -15093.717503 -18941.832144   -431.332827
PG25 -16199.536404 -16235.373507  13282.153046    488.509756
PG26  -8128.171844  16414.735334  18960.524973    190.459010
PG27 -11017.300320  22416.421847  -8635.861316     -3.826759
PG28 -21615.472289   6595.551850  13927.476398   -130.291714
PG29 -15734.018301  -4364.175711  20919.191243   -607.034643
PG30  24961.903400  -2147.755225  -9084.616382   -432.885355
PG31 -14046.856972  11192.329604  19483.641235   -227.759828
PG32 -20300.173611  13842.648051  -9612.291369   -611.495296
PJ02 -27470.806932  23972.814070  26292.144556     -1.966166
PJ03 -32946.713877  17295.219342 -15213.941201     -0.225074
PJ04      0.000000      0.000000      0.000000     50.897952
PR01 -12059.999464  18076.541767 -13363.307121     77.124584
PR02  -6411.864152  24356.749070   3857.829413    -22.460473
PR03   3630.640816  17000.915914  18691.872937     94.483624
PR04  11064.749391    580.453526  23010.279875    223.348970
PR05  12889.089090 -16162.401962  14976.939183    126.882322
PR07  -3988.626421 -16428.307930 -19077.224674     75.778367
PR08 -11201.789831   -306.179455 -22847.871496    -74.396157
PR09  -4008.576979 -17344.656487 -18220.205562    169.870008
PR11 -18884.259966 -12020.127977  12220.587613     34.417335
PR12 -10621.348578   4541.424309  22760.937187     36.729063
PR13   1996.158260  16097.890347  19662.803749    -44.335804
PR14  15782.031617  19742.206920   3513.578494     26.074305
PR15  18662.009837  11048.000268 -13420.610152     82.205624
PR16  10698.018654  -4226.503796 -22768.521209     23.293887
PR17  11747.516251   7562.999513 -21322.082418     61.058042
PR18  23584.080723     13.717078  -9773.035755    127.280086
PR19  24195.991332  -6186.585230   5204.010118   -265.724941
PR20   8703.517181 -10978.278871  21340.013932   -108.247414
PR21 -11987.071312  -7471.423033  21247.829749    -76.789188
PR22 -23947.223830   -353.142487   8782.534497    107.996282
PR24  -7527.359832  11736.493666 -21342.278404    -43.822580
PR26 -10946.900117  -1205.988554 -22984.594167   -198.488876
EOF
